SKYKRAFT-1A             
1 55054U 23001AX  26068.71064616  .00008177  00000+0  30069-3 0  9991
2 55054  97.3349 127.6290 0011277 121.5092 238.7251 15.28083228176529
STARLINK-34143          
1 63896U 25095G   26068.32864415  .00040432  00000+0  14703-2 0  9997
2 63896  42.9961 178.1631 0000330 216.7211 143.3618 15.27591094 47738
